[{"OBJECT_NAME":"STARLINK-2524","OBJECT_ID":"2021-036AE","EPOCH":"2026-03-09T09:12:40.806432","MEAN_MOTION":15.06399211,"ECCENTRICITY":0.00011587,"INCLINATION":53.0546,"RA_OF_ASC_NODE":92.9921,"ARG_OF_PERICENTER":85.291,"MEAN_ANOMALY":274.8212,"EPHEMERIS_TYPE":0,"CLASSIFICATION_TYPE":"U","NORAD_CAT_ID":48304,"ELEMENT_SET_NO":999,"REV_AT_EPOCH":26812,"BSTAR":0.00024487552,"MEAN_MOTION_DOT":3.368e-5,"MEAN_MOTION_DDOT":0},{"OBJECT_NAME":"SL-8 DEB","OBJECT_ID":"1976-098E","EPOCH":"2026-03-09T08:07:12.416160","MEAN_MOTION":15.06605169,"ECCENTRICITY":0.00102283,"INCLINATION":74.028,"RA_OF_ASC_NODE":26.283,"ARG_OF_PERICENTER":218.296,"MEAN_ANOMALY":294.2383,"EPHEMERIS_TYPE":0,"CLASSIFICATION_TYPE":"U","NORAD_CAT_ID":18504,"ELEMENT_SET_NO":999,"REV_AT_EPOCH":18055,"BSTAR":0.0011587434,"MEAN_MOTION_DOT":0.00017191,"MEAN_MOTION_DDOT":0}]
